IRIDIUM 144             
1 43249U 18030A   24201.61517643  .00000241  00000+0  78914-4 0  9995
2 43249  86.3961 221.9127 0002398  84.2702 275.8767 14.34217884330152
IRIDIUM 149             
1 43250U 18030B   24201.76105707  .00000095  00000+0  26785-4 0  9993
2 43250  86.3960 221.8266 0002229  85.9259 274.2192 14.34217603330192
IRIDIUM 157             
1 43251U 18030C   24201.78008524  .00000074  00000+0  19259-4 0  9990
2 43251  86.3961 221.8563 0001999  95.2686 264.8738 14.34217421330172
IRIDIUM 140             
1 43252U 18030D   24201.79911435  .00000048  00000+0  10011-4 0  9994
2 43252  86.3961 221.8629 0002622  88.0881 272.0615 14.34217564330237
IRIDIUM 145             
1 43253U 18030E   24201.78642776  .00000010  00000+0 -36630-5 0  9999
2 43253  86.3966 221.8417 0002255  80.2613 279.8837 14.34217159330160
IRIDIUM 146             
1 43254U 18030F   24201.76739958 -.00000036  00000+0 -19928-4 0  9996
2 43254  86.3965 221.8644 0002225  85.6941 274.4509 14.34217082330175
IRIDIUM 148             
1 43255U 18030G   24201.59614995  .00000070  00000+0  17851-4 0  9990
2 43255  86.3962 221.9684 0002107  90.1171 270.0266 14.34217542330187
IRIDIUM 142             
1 43256U 18030H   24201.49466857  .00000096  00000+0  27127-4 0  9997
2 43256  86.3961 221.9253 0002324  83.1742 276.9718 14.34217705330139
